{"type":"Feature","properties":{"name":"Unsko-sanski kanton","source":"geoBoundaries gbOpen BIH ADM2 (2013), Wikimedia Commons","license":"Public Domain","sourceURL":"https://www.geoboundaries.org/api/current/gbOpen/BIH/ADM2/","precision":"Približna administrativna granica za ograničenje prikaza; nije katastarska granica."},"geometry":{"type":"Polygon","coordinates":[[[16.296981774333517,45.00155604807048],[16.29158828377234,45.00915220181275],[16.27821468056311,45.016691812976944],[16.266872510058477,45.0169311495531],[16.251806045512637,45.02123903435398],[16.23944815910528,45.01908513287265],[16.2184566803316,45.03105023048386],[16.208807371163346,45.032246603098315],[16.20102020991493,45.02997347399668],[16.195772340221424,45.030212754814954],[16.185784458785918,45.04301282708036],[16.184938028567217,45.05186353917105],[16.17343715290241,45.0623346137516],[16.176346757397027,45.07074147713746],[16.171585585506477,45.07485104883693],[16.1633857892229,45.07821320567507],[16.15359893504285,45.08624422439158],[16.14619266725782,45.08960571123475],[16.129264055691806,45.09707497383113],[16.100961532948418,45.104169868444785],[16.092232716766546,45.10865039969622],[16.088265073374544,45.11275724465116],[16.087736054375455,45.11817036117333],[16.093819774663018,45.126569009252535],[16.093819774663018,45.12974150986287],[16.081916844486955,45.143362595707345],[16.06604627091872,45.15586127637698],[16.057846473735765,45.16164331998334],[16.044091977063147,45.16761126694644],[16.045943543559872,45.17861302876838],[16.04303393906514,45.180477523918626],[16.027427874097157,45.17730784628026],[16.014466905923086,45.18215551676377],[16.02584081710006,45.19893272746339],[16.024782779102054,45.207319478411364],[16.020021606312127,45.21235093614695],[16.01367337742454,45.21533232992306],[16.004680051743037,45.2164503122321],[16.000447898851576,45.218499890557666],[15.98788898518859,45.228947860655296],[15.97993253735683,45.232286037071106],[15.968251795484036,45.228113286199346],[15.954878192274862,45.21809743315015],[15.934563857136368,45.210703648854405],[15.927792412689769,45.21296958787627],[15.925930265669365,45.21809743315015],[15.916958101035561,45.22799406037757],[15.895797336577857,45.22620564067796],[15.891903755054386,45.22739792677305],[15.885978740826317,45.22394022865876],[15.88496302492382,45.21905140070169],[15.879207296379718,45.21559319447044],[15.866172265437797,45.21654720339086],[15.850428656357394,45.219766864449355],[15.83835516975546,45.21621330220222],[15.820478555840793,45.21651858336611],[15.819286781459937,45.21384731719996],[15.823728849606823,45.211404906911014],[15.82437890835996,45.20934404119453],[15.822697473809455,45.20601495422687],[15.80656239074193,45.20713311999765],[15.79942063245619,45.1965096579944],[15.786459663382914,45.191849619364575],[15.778259867099337,45.19110397796618],[15.772969676209755,45.18849415528115],[15.763447331529164,45.17749430272005],[15.761860274532012,45.172086815953946],[15.761860274532012,45.14970555186977],[15.763711841028794,45.14149688557285],[15.767150465421821,45.13515301569919],[15.780640453494186,45.12097004782953],[15.78196300099188,45.10977047742563],[15.76953105181667,45.1002491148048],[15.76741497492128,45.085310443022536],[15.763182822029705,45.076718938028705],[15.757363612141148,45.07018105740997],[15.742022057572001,45.06065309286606],[15.741757548072371,45.05560823343325],[15.745725191464544,45.05243161212928],[15.746994837242028,45.041816680195666],[15.753427709421317,45.02997347399668],[15.766801313529868,45.01585412776598],[15.786269216651135,45.003047980579936],[15.785761358699858,44.99981607075517],[15.775942763847524,44.9917953582692],[15.774419188194997,44.98808390205056],[15.781529205808283,44.979343073623966],[15.778482055402662,44.96820556633389],[15.76510845219343,44.967606714078784],[15.75596700187566,44.96545079541795],[15.75325842373735,44.963055234411684],[15.751057703550316,44.94760146603488],[15.738191959191681,44.94125103740555],[15.737514814657118,44.93801564360717],[15.752073420352133,44.91080715602561],[15.760368440451202,44.88202645925384],[15.77187989664003,44.863671245931414],[15.790956326673154,44.84932341164631],[15.790691816274318,44.845197653948674],[15.779053395597714,44.83750795312966],[15.749957344356119,44.8363825451184],[15.727738541000917,44.82644048593983],[15.724299916607833,44.82250070444411],[15.72694501250237,44.81555853000225],[15.731970693892492,44.8074895482041],[15.777297052916822,44.758586147432936],[15.787792792303605,44.743798836047574],[15.79828853169056,44.73850814783293],[15.815047857572608,44.732856194757574],[15.82842146078184,44.71709996549106],[15.837224338832357,44.716618792223585],[15.84467292781352,44.72684287339996],[15.849074367288267,44.72972934553292],[15.862447970497442,44.72624150664035],[15.870065846061948,44.727083418664904],[15.87514442917211,44.72936854472272],[15.891057324835856,44.74427978358517],[15.90087591968802,44.74632376722815],[15.915095954015158,44.74584283587831],[15.9218673984617,44.741273795149596],[15.917127387618848,44.735141093286984],[15.92416291798446,44.716580297642736],[15.928713329256766,44.71026692288018],[15.935863974642814,44.70988193930009],[15.944856453162856,44.71249978034075],[15.950598638816246,44.712345793023985],[15.956882539197977,44.71011293016778],[15.982884887527575,44.68831873991809],[15.981259740644532,44.67830452453421],[15.985918495042597,44.667826262572135],[15.993719199181783,44.6645128885591],[16.01896314563271,44.65942687525012],[16.030072969991636,44.658668270124735],[16.037743747276295,44.65584598980064],[16.04911765845327,44.64530826466478],[16.05890451263315,44.62987456825675],[16.061814117127938,44.61801418500664],[16.059962550631326,44.61085913024482],[16.045679034060242,44.59711142165497],[16.024253760103136,44.58637464777189],[16.020286116710963,44.58298367575617],[16.01975709681267,44.5750706373002],[16.039595314672056,44.559429800045336],[16.055201378740662,44.55754507734349],[16.072923518805453,44.55132506120259],[16.0858844878789,44.5396371724176],[16.100168003550664,44.53096399729071],[16.115022861216175,44.50922258915131],[16.124672169485223,44.50487635186232],[16.130427898029154,44.49823564186141],[16.127211461939567,44.49413009732632],[16.126331174044537,44.48600509765731],[16.143882758582492,44.46312149206324],[16.145616248591068,44.44556616005025],[16.13889897480783,44.4362063156691],[16.13911566105901,44.43210607713394],[16.146699679846392,44.41972625356391],[16.16403457813334,44.41392230786829],[16.17021013628886,44.40587321727514],[16.16966842066114,44.400377529499565],[16.164792980012066,44.396352191000915],[16.12784797780199,44.39457166375138],[16.12503105653809,44.392791083441864],[16.126222830918948,44.38946202615176],[16.13229004504973,44.38489394140237],[16.15731730524942,44.37018073865022],[16.165984754392923,44.36576605755755],[16.18288628017774,44.36204817208551],[16.19296218995322,44.35747794874851],[16.20845525600538,44.347406707353855],[16.209145943430656,44.34081104349485],[16.206437365292345,44.33754199166975],[16.183075880647436,44.322162898499016],[16.181383020210376,44.31138302011033],[16.182229450428906,44.30617405418934],[16.1871387478551,44.29769335466466],[16.188154464656975,44.28884789101744],[16.194248764568954,44.28060708295055],[16.193910192301644,44.24835987470857],[16.195603053638138,44.245085672465905],[16.21669188445577,44.24272994971625],[16.22929099141345,44.24811734727649],[16.24401888397125,44.251391380280495],[16.247235320710786,44.25466523103398],[16.245373173313794,44.259757525723046],[16.229121705694865,44.28000109542677],[16.2326767138714,44.28521238340801],[16.238432441780617,44.28909025062944],[16.2430031669644,44.29757219288308],[16.260439637308934,44.3096871286067],[16.27838396660627,44.30992940188423],[16.287017558021034,44.31150415284691],[16.294127575272796,44.31925615975371],[16.308072519585153,44.32506949240968],[16.31018859556002,44.331313641877216],[16.311511143830387,44.3513661101062],[16.314685258241695,44.35685096771215],[16.31032085092596,44.36913093234773],[16.309907554928543,44.37858439558693],[16.299575149598468,44.39482897111117],[16.297095372714523,44.40457355238743],[16.292962410941925,44.40929761404311],[16.304948000262243,44.413430854704984],[16.304121408267008,44.420810914841354],[16.29220194573145,44.43509606448566],[16.291672926962406,44.458133839404354],[16.28823430271717,44.47304689612383],[16.29087939835938,44.48984311777184],[16.29405351277086,44.49173003152936],[16.308601538354367,44.49154134334924],[16.316272316345817,44.48814484338743],[16.33134936069837,44.477765424656695],[16.348277972988853,44.4758780591564],[16.377109515220354,44.47436812254648],[16.404354000246258,44.47474561068219],[16.41599242035352,44.47795415740063],[16.431069465604594,44.47965272911114],[16.444022319371584,44.47908223960144],[16.442252930343216,44.48144938580475],[16.437512918542552,44.492681013228434],[16.44204301562081,44.50857067372334],[16.446701769414005,44.51506052368762],[16.4556942476662,44.524175996134545],[16.462411521475758,44.52850148470293],[16.48238432034651,44.53416945141544],[16.529731532074152,44.53605493055858],[16.542163481682735,44.53586638519931],[16.556711507266243,44.532283911224056],[16.588452654973764,44.533980899951416],[16.61357048276909,44.527931851515575],[16.64861271007527,44.52563878138602],[16.666726324192894,44.52744910720861],[16.730377905326748,44.521293768839485],[16.743920795159056,44.522138657699145],[16.7535701035805,44.52431117297442],[16.767790138084194,44.521414467723616],[16.783364461031965,44.513930646122446],[16.80266307877349,44.517672677072426],[16.81705239899577,44.51525849108248],[16.826193849363108,44.51694843158555],[16.840413882968335,44.523104229690034],[16.860897503435353,44.535452488820454],[16.869131580805515,44.535915859597594],[16.879424176395332,44.53390789293405],[16.88440795952306,44.535684174669996],[16.89188363511289,44.54340650948359],[16.898059192466746,44.55174547998274],[16.895025585345707,44.554370464827684],[16.883757900854278,44.55877090800766],[16.878015715946276,44.56494640733166],[16.876823941720147,44.5695004187354],[16.876932284831526,44.57281921891388],[16.886683164863996,44.5864011719471],[16.887874939090125,44.5971255858384],[16.87379033459888,44.61270717738523],[16.867073060789153,44.61756592747031],[16.854180230524094,44.623041175090975],[16.852880113186416,44.63383592390329],[16.846487868711336,44.64863688692935],[16.847462956714537,44.670600104477785],[16.840528997580407,44.677380048734676],[16.832944979777267,44.679922323092285],[16.809217836568337,44.681308971181636],[16.804342396552215,44.68662414808273],[16.803367308548957,44.698947320102775],[16.808676121010933,44.71257677416594],[16.809318138859794,44.72109956732942],[16.807202062884926,44.7288047883149],[16.79635717048194,44.751162909343975],[16.77598993394639,44.77238572732074],[16.77043523372646,44.79472699252517],[16.76435151383896,44.79941943637414],[16.735255461773818,44.805237537378105],[16.72732017484691,44.80805253649089],[16.71462371630281,44.816684344686394],[16.704836862336492,44.81987403392003],[16.649120568129547,44.81949878578382],[16.604598319018635,44.85251129530843],[16.59714972943118,44.85383140172354],[16.582929694927714,44.84951093906568],[16.57429610351295,44.85155119821451],[16.569217519376764,44.85479146080485],[16.560583927063703,44.857431540114135],[16.551781049032,44.857431540114135],[16.54653317917706,44.8553914892845],[16.531974573236198,44.85383140172354],[16.48762160984387,44.85383140172354],[16.471200856506186,44.85611151558959],[16.43141861829764,44.866310918180034],[16.41821430080097,44.86739074912447],[16.407379989653748,44.860431483082664],[16.387404227241007,44.84134918100477],[16.3552398643385,44.8232211418445],[16.346098413971163,44.82490212689078],[16.337634108275154,44.831625577552245],[16.32612265155842,44.85299133721651],[16.318335490533627,44.86247135535268],[16.311394759898747,44.86607095292629],[16.280415399721846,44.86943037417541],[16.237586011390874,44.89390024184689],[16.230814566474635,44.90073555086667],[16.22742884401646,44.909848031872855],[16.223081576556524,44.933049557653135],[16.20748016760615,44.95413807996414],[16.20347147248168,44.96249465908437],[16.194912366675567,44.969163716480296],[16.197079228904954,44.97537214132154],[16.204554903596488,44.986254425375364],[16.211163834294496,44.989549357283636],[16.22730695790392,44.98203970152224],[16.23803292683789,44.981963067311426],[16.283970407898607,44.99598542269848],[16.296981774333517,45.00155604807048]]]}}
